UNKNOWN                 
1 82162U          26014.54102919  .00003146  00000+0  46971-2 0  9995
2 82162 100.4751 305.9183 0042381 146.3379 214.0459 13.53846211508742
UNKNOWN                 
1 82180U          26016.19058690  .00013568  00000+0  17634-2 0  9997
2 82180  65.6521 190.9005 0310946 199.5557 159.3404 14.52426121606752
UNKNOWN                 
1 82189U          26011.20045993  .00000369  00000+0  13775-3 0  9993
2 82189  74.0348 354.2937 0016529 183.4902 176.6138 14.35236453636642
UNKNOWN                 
1 82199U          26016.29027111  .00000459  00000+0  38514-3 0  9998
2 82199  82.9650 207.9062 0036980 298.5699 242.8682 13.85818483614474
UNKNOWN                 
1 82205U          26013.39051843  .00001784  00000+0  52370-3 0  9991
2 82205  63.0097 155.5121 0494757 296.2621  58.8386 13.93500534612413
UNKNOWN                 
1 82223U          26015.50143091  .00001309  00000+0  72514-3 0  9998
2 82223  99.3195 267.7698 0067681 252.3406 107.0366 14.12026292453554
UNKNOWN                 
1 82250U          26015.21979117  .00002265  00000+0  11849-2 0  9997
2 82250  98.9102 285.5685 0071657  94.8762  57.1457 14.14045251621363
UNKNOWN                 
1 82272U          26016.33238447 -.00000249  00000+0 -63692-3 0  9995
2 82272  67.5251 138.0877 0751796  84.0632 284.5471 12.33576418276209
UNKNOWN                 
1 82303U          26016.62796498  .00017621  00000+0  14480-1 0  9996
2 82303  81.9191 333.0453 0038735 286.8871 255.0703 13.88787038519262
UNKNOWN                 
1 82311U          26016.39927596  .00000548  00000+0  82971-3 0  9996
2 82311  99.4325  73.6577 0111038 219.5690 139.7304 13.54597816555012
UNKNOWN                 
1 82363U          26015.28507668  .00000644  00000+0  11063-2 0  9994
2 82363  66.9365 122.1329 0453694 144.3065 218.9230 13.15646533294673
UNKNOWN                 
1 82369U          26012.80389361  .00000051  00000+0  64170-4 0  9994
2 82369  98.8977  31.9356 0082761 252.6700 106.5399 13.98187235561519
