CCSDS_OMM_VERS = 2.0
CREATION_DATE  = 
ORIGINATOR     = 

OBJECT_NAME    = UNKNOWN
OBJECT_ID      = 
CENTER_NAME    = EARTH
REF_FRAME      = TEME
TIME_SYSTEM    = UTC
MEAN_ELEMENT_THEORY = SGP/SGP4

EPOCH          = 2026-01-14T12:59:04.922016
MEAN_MOTION    = 13.53846211
ECCENTRICITY   = .0042381
INCLINATION    = 100.4751
RA_OF_ASC_NODE = 305.9183
ARG_OF_PERICENTER = 146.3379
MEAN_ANOMALY   = 214.0459

EPHEMERIS_TYPE = 0
CLASSIFICATION_TYPE = U
NORAD_CAT_ID   = 82162
ELEMENT_SET_NO = 999
REV_AT_EPOCH   = 50874
BSTAR          = .46971E-2
MEAN_MOTION_DOT = .3146E-4
MEAN_MOTION_DDOT = 0

CCSDS_OMM_VERS = 2.0
CREATION_DATE  = 
ORIGINATOR     = 

OBJECT_NAME    = UNKNOWN
OBJECT_ID      = 
CENTER_NAME    = EARTH
REF_FRAME      = TEME
TIME_SYSTEM    = UTC
MEAN_ELEMENT_THEORY = SGP/SGP4

EPOCH          = 2026-01-16T04:34:26.708160
MEAN_MOTION    = 14.52426121
ECCENTRICITY   = .0310946
INCLINATION    = 65.6521
RA_OF_ASC_NODE = 190.9005
ARG_OF_PERICENTER = 199.5557
MEAN_ANOMALY   = 159.3404

EPHEMERIS_TYPE = 0
CLASSIFICATION_TYPE = U
NORAD_CAT_ID   = 82180
ELEMENT_SET_NO = 999
REV_AT_EPOCH   = 60675
BSTAR          = .17634E-2
MEAN_MOTION_DOT = .13568E-3
MEAN_MOTION_DDOT = 0

CCSDS_OMM_VERS = 2.0
CREATION_DATE  = 
ORIGINATOR     = 

OBJECT_NAME    = UNKNOWN
OBJECT_ID      = 
CENTER_NAME    = EARTH
REF_FRAME      = TEME
TIME_SYSTEM    = UTC
MEAN_ELEMENT_THEORY = SGP/SGP4

EPOCH          = 2026-01-11T04:48:39.737952
MEAN_MOTION    = 14.35236453
ECCENTRICITY   = .0016529
INCLINATION    = 74.0348
RA_OF_ASC_NODE = 354.2937
ARG_OF_PERICENTER = 183.4902
MEAN_ANOMALY   = 176.6138

EPHEMERIS_TYPE = 0
CLASSIFICATION_TYPE = U
NORAD_CAT_ID   = 82189
ELEMENT_SET_NO = 999
REV_AT_EPOCH   = 63664
BSTAR          = .13775E-3
MEAN_MOTION_DOT = .369E-5
MEAN_MOTION_DDOT = 0

CCSDS_OMM_VERS = 2.0
CREATION_DATE  = 
ORIGINATOR     = 

OBJECT_NAME    = UNKNOWN
OBJECT_ID      = 
CENTER_NAME    = EARTH
REF_FRAME      = TEME
TIME_SYSTEM    = UTC
MEAN_ELEMENT_THEORY = SGP/SGP4

EPOCH          = 2026-01-16T06:57:59.423904
MEAN_MOTION    = 13.85818483
ECCENTRICITY   = .003698
INCLINATION    = 82.9650
RA_OF_ASC_NODE = 207.9062
ARG_OF_PERICENTER = 298.5699
MEAN_ANOMALY   = 242.8682

EPHEMERIS_TYPE = 0
CLASSIFICATION_TYPE = U
NORAD_CAT_ID   = 82199
ELEMENT_SET_NO = 999
REV_AT_EPOCH   = 61447
BSTAR          = .38514E-3
MEAN_MOTION_DOT = .459E-5
MEAN_MOTION_DDOT = 0

CCSDS_OMM_VERS = 2.0
CREATION_DATE  = 
ORIGINATOR     = 

OBJECT_NAME    = UNKNOWN
OBJECT_ID      = 
CENTER_NAME    = EARTH
REF_FRAME      = TEME
TIME_SYSTEM    = UTC
MEAN_ELEMENT_THEORY = SGP/SGP4

EPOCH          = 2026-01-13T09:22:20.792352
MEAN_MOTION    = 13.93500534
ECCENTRICITY   = .0494757
INCLINATION    = 63.0097
RA_OF_ASC_NODE = 155.5121
ARG_OF_PERICENTER = 296.2621
MEAN_ANOMALY   = 58.8386

EPHEMERIS_TYPE = 0
CLASSIFICATION_TYPE = U
NORAD_CAT_ID   = 82205
ELEMENT_SET_NO = 999
REV_AT_EPOCH   = 61241
BSTAR          = .5237E-3
MEAN_MOTION_DOT = .1784E-4
MEAN_MOTION_DDOT = 0

CCSDS_OMM_VERS = 2.0
CREATION_DATE  = 
ORIGINATOR     = 

OBJECT_NAME    = UNKNOWN
OBJECT_ID      = 
CENTER_NAME    = EARTH
REF_FRAME      = TEME
TIME_SYSTEM    = UTC
MEAN_ELEMENT_THEORY = SGP/SGP4

EPOCH          = 2026-01-15T12:02:03.630624
MEAN_MOTION    = 14.12026292
ECCENTRICITY   = .0067681
INCLINATION    = 99.3195
RA_OF_ASC_NODE = 267.7698
ARG_OF_PERICENTER = 252.3406
MEAN_ANOMALY   = 107.0366

EPHEMERIS_TYPE = 0
CLASSIFICATION_TYPE = U
NORAD_CAT_ID   = 82223
ELEMENT_SET_NO = 999
REV_AT_EPOCH   = 45355
BSTAR          = .72514E-3
MEAN_MOTION_DOT = .1309E-4
MEAN_MOTION_DDOT = 0

CCSDS_OMM_VERS = 2.0
CREATION_DATE  = 
ORIGINATOR     = 

OBJECT_NAME    = UNKNOWN
OBJECT_ID      = 
CENTER_NAME    = EARTH
REF_FRAME      = TEME
TIME_SYSTEM    = UTC
MEAN_ELEMENT_THEORY = SGP/SGP4

EPOCH          = 2026-01-15T05:16:29.957088
MEAN_MOTION    = 14.14045251
ECCENTRICITY   = .0071657
INCLINATION    = 98.9102
RA_OF_ASC_NODE = 285.5685
ARG_OF_PERICENTER = 94.8762
MEAN_ANOMALY   = 57.1457

EPHEMERIS_TYPE = 0
CLASSIFICATION_TYPE = U
NORAD_CAT_ID   = 82250
ELEMENT_SET_NO = 999
REV_AT_EPOCH   = 62136
BSTAR          = .11849E-2
MEAN_MOTION_DOT = .2265E-4
MEAN_MOTION_DDOT = 0

CCSDS_OMM_VERS = 2.0
CREATION_DATE  = 
ORIGINATOR     = 

OBJECT_NAME    = UNKNOWN
OBJECT_ID      = 
CENTER_NAME    = EARTH
REF_FRAME      = TEME
TIME_SYSTEM    = UTC
MEAN_ELEMENT_THEORY = SGP/SGP4

EPOCH          = 2026-01-16T07:58:38.018208
MEAN_MOTION    = 12.33576418
ECCENTRICITY   = .0751796
INCLINATION    = 67.5251
RA_OF_ASC_NODE = 138.0877
ARG_OF_PERICENTER = 84.0632
MEAN_ANOMALY   = 284.5471

EPHEMERIS_TYPE = 0
CLASSIFICATION_TYPE = U
NORAD_CAT_ID   = 82272
ELEMENT_SET_NO = 999
REV_AT_EPOCH   = 27620
BSTAR          = -.63692E-3
MEAN_MOTION_DOT = -.249E-5
MEAN_MOTION_DDOT = 0

CCSDS_OMM_VERS = 2.0
CREATION_DATE  = 
ORIGINATOR     = 

OBJECT_NAME    = UNKNOWN
OBJECT_ID      = 
CENTER_NAME    = EARTH
REF_FRAME      = TEME
TIME_SYSTEM    = UTC
MEAN_ELEMENT_THEORY = SGP/SGP4

EPOCH          = 2026-01-16T15:04:16.174272
MEAN_MOTION    = 13.88787038
ECCENTRICITY   = .0038735
INCLINATION    = 81.9191
RA_OF_ASC_NODE = 333.0453
ARG_OF_PERICENTER = 286.8871
MEAN_ANOMALY   = 255.0703

EPHEMERIS_TYPE = 0
CLASSIFICATION_TYPE = U
NORAD_CAT_ID   = 82303
ELEMENT_SET_NO = 999
REV_AT_EPOCH   = 51926
BSTAR          = .1448E-1
MEAN_MOTION_DOT = .17621E-3
MEAN_MOTION_DDOT = 0

CCSDS_OMM_VERS = 2.0
CREATION_DATE  = 
ORIGINATOR     = 

OBJECT_NAME    = UNKNOWN
OBJECT_ID      = 
CENTER_NAME    = EARTH
REF_FRAME      = TEME
TIME_SYSTEM    = UTC
MEAN_ELEMENT_THEORY = SGP/SGP4

EPOCH          = 2026-01-16T09:34:57.442944
MEAN_MOTION    = 13.54597816
ECCENTRICITY   = .0111038
INCLINATION    = 99.4325
RA_OF_ASC_NODE = 73.6577
ARG_OF_PERICENTER = 219.5690
MEAN_ANOMALY   = 139.7304

EPHEMERIS_TYPE = 0
CLASSIFICATION_TYPE = U
NORAD_CAT_ID   = 82311
ELEMENT_SET_NO = 999
REV_AT_EPOCH   = 55501
BSTAR          = .82971E-3
MEAN_MOTION_DOT = .548E-5
MEAN_MOTION_DDOT = 0

CCSDS_OMM_VERS = 2.0
CREATION_DATE  = 
ORIGINATOR     = 

OBJECT_NAME    = UNKNOWN
OBJECT_ID      = 
CENTER_NAME    = EARTH
REF_FRAME      = TEME
TIME_SYSTEM    = UTC
MEAN_ELEMENT_THEORY = SGP/SGP4

EPOCH          = 2026-01-15T06:50:30.625152
MEAN_MOTION    = 13.15646533
ECCENTRICITY   = .0453694
INCLINATION    = 66.9365
RA_OF_ASC_NODE = 122.1329
ARG_OF_PERICENTER = 144.3065
MEAN_ANOMALY   = 218.9230

EPHEMERIS_TYPE = 0
CLASSIFICATION_TYPE = U
NORAD_CAT_ID   = 82363
ELEMENT_SET_NO = 999
REV_AT_EPOCH   = 29467
BSTAR          = .11063E-2
MEAN_MOTION_DOT = .644E-5
MEAN_MOTION_DDOT = 0

CCSDS_OMM_VERS = 2.0
CREATION_DATE  = 
ORIGINATOR     = 

OBJECT_NAME    = UNKNOWN
OBJECT_ID      = 
CENTER_NAME    = EARTH
REF_FRAME      = TEME
TIME_SYSTEM    = UTC
MEAN_ELEMENT_THEORY = SGP/SGP4

EPOCH          = 2026-01-12T19:17:36.407904
MEAN_MOTION    = 13.98187235
ECCENTRICITY   = .0082761
INCLINATION    = 98.8977
RA_OF_ASC_NODE = 31.9356
ARG_OF_PERICENTER = 252.6700
MEAN_ANOMALY   = 106.5399

EPHEMERIS_TYPE = 0
CLASSIFICATION_TYPE = U
NORAD_CAT_ID   = 82369
ELEMENT_SET_NO = 999
REV_AT_EPOCH   = 56151
BSTAR          = .6417E-4
MEAN_MOTION_DOT = .51E-6
MEAN_MOTION_DDOT = 0

